1 08820U 76039A   03277.57006627 -.00000009  00000-0  10000-3 0  9629
2 08820 109.8201 219.0334 0044367 277.9622  81.5886  6.38664488384040
